STARLINK-2322           
1 47791U 21018E   25342.19736022  .00006057  00000+0  42511-3 0  9999
2 47791  53.0545 302.3427 0001463  86.0380 274.0777 15.06406708262812
STARLINK-2334           
1 47792U 21018F   25342.27660423  .00016806  00000+0  11439-2 0  9997
2 47792  53.0546 281.9864 0001278  93.5169 266.5966 15.06416250263105
STARLINK-2338           
1 47793U 21018G   25342.22499903  .00001710  00000+0  13362-3 0  9992
2 47793  53.0554 282.2184 0001405 104.9748 255.1397 15.06408383263083
STARLINK-2373           
1 47796U 21018K   25342.23237234  .00008624  00000+0  59696-3 0  9994
2 47796  53.0540 282.1869 0001370  88.4418 271.6728 15.06412720263093
STARLINK-2377           
1 47797U 21018L   25342.20242557  .00004297  00000+0  30710-3 0  9994
2 47797  53.0562 307.3237 0001525  92.2260 267.8903 15.06407747262732
STARLINK-2379           
1 47798U 21018M   25342.24342240  .00019700  00000+0  13360-2 0  9995
2 47798  53.0538 282.1371 0001423  98.7662 261.3488 15.06446890263098
STARLINK-2380           
1 47799U 21018N   25342.10704981  .00015840  00000+0  10787-2 0  9996
2 47799  53.0546 282.7498 0001572  81.9081 278.2086 15.06441440263062
STARLINK-2381           
1 47800U 21018P   25342.06282332 -.00000766  00000+0 -32548-4 0  9999
2 47800  53.0543 282.9449 0001498  95.0842 265.0318 15.06397941263066
STARLINK-2383           
1 47802U 21018R   25342.20979987  .00004303  00000+0  30746-3 0  9992
2 47802  53.0551 307.2869 0001316  94.2029 265.9110 15.06412336262740
STARLINK-2385           
1 47804U 21018T   25342.22132241  .00012591  00000+0  86215-3 0  9990
2 47804  53.0552 282.2349 0001458  96.3941 263.7215 15.06421201263082
STARLINK-2386           
1 47805U 21018U   25342.25452079  .00009558  00000+0  65947-3 0  9996
2 47805  53.0542 282.3293 0001372  91.8844 268.2302 15.06412971263090
STARLINK-2387           
1 47806U 21018V   25342.25863538 -.00001964  00000+0 -11304-3 0  9996
2 47806  53.0564 297.0765 0001492  80.9220 279.1937 15.06387259262940
STARLINK-2388           
1 47807U 21018W   25342.18169542  .00016563  00000+0  11274-2 0  9997
2 47807  53.0547 272.4126 0001147  94.1041 266.0079 15.06428163263218
STARLINK-2389           
1 47808U 21018X   25342.27706002  .00005030  00000+0  35610-3 0  9994
2 47808  53.0548 296.9858 0001142  96.7362 263.3757 15.06421754262943
STARLINK-2391           
1 47810U 21018Z   25342.24067150  .00004061  00000+0  29136-3 0  9997
2 47810  53.0557 312.1503 0001495  95.5991 264.5168 15.06399778262725
STARLINK-2393           
1 47812U 21018AB  25342.33337963  .00506903  00000+0  21890-2 0  9991
2 47812  53.0481 288.7876 0009271  92.6107  67.0021 15.83032662  5709
