[{"OBJECT_NAME":"STARLINK-2322","OBJECT_ID":"2021-018E","EPOCH":"2025-12-08T04:44:11.923008","MEAN_MOTION":15.06406708,"ECCENTRICITY":0.00014633,"INCLINATION":53.0545,"RA_OF_ASC_NODE":302.3427,"ARG_OF_PERICENTER":86.038,"MEAN_ANOMALY":274.0777,"EPHEMERIS_TYPE":0,"CLASSIFICATION_TYPE":"U","NORAD_CAT_ID":47791,"ELEMENT_SET_NO":999,"REV_AT_EPOCH":26281,"BSTAR":0.00042510749,"MEAN_MOTION_DOT":6.057e-5,"MEAN_MOTION_DDOT":0},{"OBJECT_NAME":"STARLINK-2334","OBJECT_ID":"2021-018F","EPOCH":"2025-12-08T06:38:18.605472","MEAN_MOTION":15.0641625,"ECCENTRICITY":0.00012783,"INCLINATION":53.0546,"RA_OF_ASC_NODE":281.9864,"ARG_OF_PERICENTER":93.5169,"MEAN_ANOMALY":266.5966,"EPHEMERIS_TYPE":0,"CLASSIFICATION_TYPE":"U","NORAD_CAT_ID":47792,"ELEMENT_SET_NO":999,"REV_AT_EPOCH":26310,"BSTAR":0.0011439406,"MEAN_MOTION_DOT":0.00016806,"MEAN_MOTION_DDOT":0},{"OBJECT_NAME":"STARLINK-2338","OBJECT_ID":"2021-018G","EPOCH":"2025-12-08T05:23:59.916192","MEAN_MOTION":15.06408383,"ECCENTRICITY":0.00014059,"INCLINATION":53.0554,"RA_OF_ASC_NODE":282.2184,"ARG_OF_PERICENTER":104.9748,"MEAN_ANOMALY":255.1397,"EPHEMERIS_TYPE":0,"CLASSIFICATION_TYPE":"U","NORAD_CAT_ID":47793,"ELEMENT_SET_NO":999,"REV_AT_EPOCH":26308,"BSTAR":0.00013362478,"MEAN_MOTION_DOT":1.71e-5,"MEAN_MOTION_DDOT":0},{"OBJECT_NAME":"STARLINK-2373","OBJECT_ID":"2021-018K","EPOCH":"2025-12-08T05:34:36.970176","MEAN_MOTION":15.0641272,"ECCENTRICITY":0.00013706,"INCLINATION":53.054,"RA_OF_ASC_NODE":282.1869,"ARG_OF_PERICENTER":88.4418,"MEAN_ANOMALY":271.6728,"EPHEMERIS_TYPE":0,"CLASSIFICATION_TYPE":"U","NORAD_CAT_ID":47796,"ELEMENT_SET_NO":999,"REV_AT_EPOCH":26309,"BSTAR":0.00059695575,"MEAN_MOTION_DOT":8.624e-5,"MEAN_MOTION_DDOT":0},{"OBJECT_NAME":"STARLINK-2377","OBJECT_ID":"2021-018L","EPOCH":"2025-12-08T04:51:29.569248","MEAN_MOTION":15.06407747,"ECCENTRICITY":0.00015251,"INCLINATION":53.0562,"RA_OF_ASC_NODE":307.3237,"ARG_OF_PERICENTER":92.226,"MEAN_ANOMALY":267.8903,"EPHEMERIS_TYPE":0,"CLASSIFICATION_TYPE":"U","NORAD_CAT_ID":47797,"ELEMENT_SET_NO":999,"REV_AT_EPOCH":26273,"BSTAR":0.00030709875,"MEAN_MOTION_DOT":4.297e-5,"MEAN_MOTION_DDOT":0},{"OBJECT_NAME":"STARLINK-2379","OBJECT_ID":"2021-018M","EPOCH":"2025-12-08T05:50:31.695360","MEAN_MOTION":15.0644689,"ECCENTRICITY":0.00014234,"INCLINATION":53.0538,"RA_OF_ASC_NODE":282.1371,"ARG_OF_PERICENTER":98.7662,"MEAN_ANOMALY":261.3488,"EPHEMERIS_TYPE":0,"CLASSIFICATION_TYPE":"U","NORAD_CAT_ID":47798,"ELEMENT_SET_NO":999,"REV_AT_EPOCH":26309,"BSTAR":0.0013360137,"MEAN_MOTION_DOT":0.000197,"MEAN_MOTION_DDOT":0},{"OBJECT_NAME":"STARLINK-2380","OBJECT_ID":"2021-018N","EPOCH":"2025-12-08T02:34:09.103584","MEAN_MOTION":15.0644144,"ECCENTRICITY":0.00015722,"INCLINATION":53.0546,"RA_OF_ASC_NODE":282.7498,"ARG_OF_PERICENTER":81.9081,"MEAN_ANOMALY":278.2086,"EPHEMERIS_TYPE":0,"CLASSIFICATION_TYPE":"U","NORAD_CAT_ID":47799,"ELEMENT_SET_NO":999,"REV_AT_EPOCH":26306,"BSTAR":0.0010786991,"MEAN_MOTION_DOT":0.0001584,"MEAN_MOTION_DDOT":0},{"OBJECT_NAME":"STARLINK-2381","OBJECT_ID":"2021-018P","EPOCH":"2025-12-08T01:30:27.934848","MEAN_MOTION":15.06397941,"ECCENTRICITY":0.00014988,"INCLINATION":53.0543,"RA_OF_ASC_NODE":282.9449,"ARG_OF_PERICENTER":95.0842,"MEAN_ANOMALY":265.0318,"EPHEMERIS_TYPE":0,"CLASSIFICATION_TYPE":"U","NORAD_CAT_ID":47800,"ELEMENT_SET_NO":999,"REV_AT_EPOCH":26306,"BSTAR":-3.2548187e-5,"MEAN_MOTION_DOT":-7.66e-6,"MEAN_MOTION_DDOT":0},{"OBJECT_NAME":"STARLINK-2383","OBJECT_ID":"2021-018R","EPOCH":"2025-12-08T05:02:06.708768","MEAN_MOTION":15.06412336,"ECCENTRICITY":0.00013161,"INCLINATION":53.0551,"RA_OF_ASC_NODE":307.2869,"ARG_OF_PERICENTER":94.2029,"MEAN_ANOMALY":265.911,"EPHEMERIS_TYPE":0,"CLASSIFICATION_TYPE":"U","NORAD_CAT_ID":47802,"ELEMENT_SET_NO":999,"REV_AT_EPOCH":26274,"BSTAR":0.00030745866,"MEAN_MOTION_DOT":4.303e-5,"MEAN_MOTION_DDOT":0},{"OBJECT_NAME":"STARLINK-2385","OBJECT_ID":"2021-018T","EPOCH":"2025-12-08T05:18:42.256224","MEAN_MOTION":15.06421201,"ECCENTRICITY":0.00014587,"INCLINATION":53.0552,"RA_OF_ASC_NODE":282.2349,"ARG_OF_PERICENTER":96.3941,"MEAN_ANOMALY":263.7215,"EPHEMERIS_TYPE":0,"CLASSIFICATION_TYPE":"U","NORAD_CAT_ID":47804,"ELEMENT_SET_NO":999,"REV_AT_EPOCH":26308,"BSTAR":0.00086215144,"MEAN_MOTION_DOT":0.00012591,"MEAN_MOTION_DDOT":0},{"OBJECT_NAME":"STARLINK-2386","OBJECT_ID":"2021-018U","EPOCH":"2025-12-08T06:06:30.596256","MEAN_MOTION":15.06412971,"ECCENTRICITY":0.00013721,"INCLINATION":53.0542,"RA_OF_ASC_NODE":282.3293,"ARG_OF_PERICENTER":91.8844,"MEAN_ANOMALY":268.2302,"EPHEMERIS_TYPE":0,"CLASSIFICATION_TYPE":"U","NORAD_CAT_ID":47805,"ELEMENT_SET_NO":999,"REV_AT_EPOCH":26309,"BSTAR":0.00065946602,"MEAN_MOTION_DOT":9.558e-5,"MEAN_MOTION_DDOT":0},{"OBJECT_NAME":"STARLINK-2387","OBJECT_ID":"2021-018V","EPOCH":"2025-12-08T06:12:26.096832","MEAN_MOTION":15.06387259,"ECCENTRICITY":0.00014922,"INCLINATION":53.0564,"RA_OF_ASC_NODE":297.0765,"ARG_OF_PERICENTER":80.922,"MEAN_ANOMALY":279.1937,"EPHEMERIS_TYPE":0,"CLASSIFICATION_TYPE":"U","NORAD_CAT_ID":47806,"ELEMENT_SET_NO":999,"REV_AT_EPOCH":26294,"BSTAR":-0.00011303793,"MEAN_MOTION_DOT":-1.964e-5,"MEAN_MOTION_DDOT":0},{"OBJECT_NAME":"STARLINK-2388","OBJECT_ID":"2021-018W","EPOCH":"2025-12-08T04:21:38.484288","MEAN_MOTION":15.06428163,"ECCENTRICITY":0.00011477,"INCLINATION":53.0547,"RA_OF_ASC_NODE":272.4126,"ARG_OF_PERICENTER":94.1041,"MEAN_ANOMALY":266.0079,"EPHEMERIS_TYPE":0,"CLASSIFICATION_TYPE":"U","NORAD_CAT_ID":47807,"ELEMENT_SET_NO":999,"REV_AT_EPOCH":26321,"BSTAR":0.0011273629,"MEAN_MOTION_DOT":0.00016563,"MEAN_MOTION_DDOT":0},{"OBJECT_NAME":"STARLINK-2389","OBJECT_ID":"2021-018X","EPOCH":"2025-12-08T06:38:57.985728","MEAN_MOTION":15.06421754,"ECCENTRICITY":0.00011427,"INCLINATION":53.0548,"RA_OF_ASC_NODE":296.9858,"ARG_OF_PERICENTER":96.7362,"MEAN_ANOMALY":263.3757,"EPHEMERIS_TYPE":0,"CLASSIFICATION_TYPE":"U","NORAD_CAT_ID":47808,"ELEMENT_SET_NO":999,"REV_AT_EPOCH":26294,"BSTAR":0.00035610233,"MEAN_MOTION_DOT":5.03e-5,"MEAN_MOTION_DDOT":0},{"OBJECT_NAME":"STARLINK-2391","OBJECT_ID":"2021-018Z","EPOCH":"2025-12-08T05:46:34.017600","MEAN_MOTION":15.06399778,"ECCENTRICITY":0.00014952,"INCLINATION":53.0557,"RA_OF_ASC_NODE":312.1503,"ARG_OF_PERICENTER":95.5991,"MEAN_ANOMALY":264.5168,"EPHEMERIS_TYPE":0,"CLASSIFICATION_TYPE":"U","NORAD_CAT_ID":47810,"ELEMENT_SET_NO":999,"REV_AT_EPOCH":26272,"BSTAR":0.00029135728,"MEAN_MOTION_DOT":4.061e-5,"MEAN_MOTION_DDOT":0},{"OBJECT_NAME":"STARLINK-2393","OBJECT_ID":"2021-018AB","EPOCH":"2025-12-08T08:00:04.000032","MEAN_MOTION":15.83032662,"ECCENTRICITY":0.00092715,"INCLINATION":53.0481,"RA_OF_ASC_NODE":288.7876,"ARG_OF_PERICENTER":92.6107,"MEAN_ANOMALY":67.0021,"EPHEMERIS_TYPE":0,"CLASSIFICATION_TYPE":"U","NORAD_CAT_ID":47812,"ELEMENT_SET_NO":999,"REV_AT_EPOCH":570,"BSTAR":0.0021890344,"MEAN_MOTION_DOT":0.00506903,"MEAN_MOTION_DDOT":0}]
